{"fetched_at":"2026-07-14T06:34:23.487Z","source":"https://celestrak.org/NORAD/elements/gp.php?GROUP=planet&FORMAT=JSON","constellation":"superdove","records":[{"OBJECT_NAME":"FLOCK 4BE-17","OBJECT_ID":"2024-149AA","EPOCH":"2026-07-13T19:02:45.148704","CLASSIFICATION_TYPE":"U","MEAN_MOTION":15.40541444,"ECCENTRICITY":0.0003979,"INCLINATION":97.3778,"RA_OF_ASC_NODE":278.3847,"ARG_OF_PERICENTER":146.2457,"MEAN_ANOMALY":213.9043,"EPHEMERIS_TYPE":0,"NORAD_CAT_ID":60492,"ELEMENT_SET_NO":999,"REV_AT_EPOCH":10635,"BSTAR":0.00024082,"MEAN_MOTION_DOT":0.00009699,"MEAN_MOTION_DDOT":0},{"OBJECT_NAME":"FLOCK 4BE-22","OBJECT_ID":"2024-149AC","EPOCH":"2026-07-13T18:01:28.141824","CLASSIFICATION_TYPE":"U","MEAN_MOTION":15.41956612,"ECCENTRICITY":0.0004629,"INCLINATION":97.3737,"RA_OF_ASC_NODE":278.5768,"ARG_OF_PERICENTER":158.2402,"MEAN_ANOMALY":201.9042,"EPHEMERIS_TYPE":0,"NORAD_CAT_ID":60494,"ELEMENT_SET_NO":999,"REV_AT_EPOCH":10639,"BSTAR":0.00022768,"MEAN_MOTION_DOT":0.00009608,"MEAN_MOTION_DDOT":0},{"OBJECT_NAME":"FLOCK 4BE-34","OBJECT_ID":"2024-149AD","EPOCH":"2026-07-13T18:26:42.832320","CLASSIFICATION_TYPE":"U","MEAN_MOTION":15.41921179,"ECCENTRICITY":0.000469,"INCLINATION":97.3786,"RA_OF_ASC_NODE":279.4336,"ARG_OF_PERICENTER":165.0317,"MEAN_ANOMALY":195.1069,"EPHEMERIS_TYPE":0,"NORAD_CAT_ID":60495,"ELEMENT_SET_NO":999,"REV_AT_EPOCH":10642,"BSTAR":0.0002314,"MEAN_MOTION_DOT":0.00009755,"MEAN_MOTION_DDOT":0},{"OBJECT_NAME":"FLOCK 4BE-32","OBJECT_ID":"2024-149AF","EPOCH":"2026-07-13T18:48:28.113408","CLASSIFICATION_TYPE":"U","MEAN_MOTION":15.43053613,"ECCENTRICITY":0.0004784,"INCLINATION":97.373,"RA_OF_ASC_NODE":279.0122,"ARG_OF_PERICENTER":162.3605,"MEAN_ANOMALY":197.781,"EPHEMERIS_TYPE":0,"NORAD_CAT_ID":60497,"ELEMENT_SET_NO":999,"REV_AT_EPOCH":10643,"BSTAR":0.00025655,"MEAN_MOTION_DOT":0.00011245,"MEAN_MOTION_DDOT":0},{"OBJECT_NAME":"FLOCK 4BE-11","OBJECT_ID":"2024-149AK","EPOCH":"2026-07-13T18:20:44.327616","CLASSIFICATION_TYPE":"U","MEAN_MOTION":15.43844656,"ECCENTRICITY":0.0004607,"INCLINATION":97.3718,"RA_OF_ASC_NODE":279.2501,"ARG_OF_PERICENTER":163.6732,"MEAN_ANOMALY":196.4665,"EPHEMERIS_TYPE":0,"NORAD_CAT_ID":60501,"ELEMENT_SET_NO":999,"REV_AT_EPOCH":10645,"BSTAR":0.00024599,"MEAN_MOTION_DOT":0.0001107,"MEAN_MOTION_DDOT":0},{"OBJECT_NAME":"FLOCK 4BE-24","OBJECT_ID":"2024-149AP","EPOCH":"2026-07-13T17:57:32.968800","CLASSIFICATION_TYPE":"U","MEAN_MOTION":15.44062505,"ECCENTRICITY":0.0004941,"INCLINATION":97.3717,"RA_OF_ASC_NODE":279.5006,"ARG_OF_PERICENTER":174.442,"MEAN_ANOMALY":185.6884,"EPHEMERIS_TYPE":0,"NORAD_CAT_ID":60505,"ELEMENT_SET_NO":999,"REV_AT_EPOCH":10646,"BSTAR":0.00027469,"MEAN_MOTION_DOT":0.00012466,"MEAN_MOTION_DDOT":0},{"OBJECT_NAME":"FLOCK 4BE-29","OBJECT_ID":"2024-149AT","EPOCH":"2026-07-13T19:19:34.793184","CLASSIFICATION_TYPE":"U","MEAN_MOTION":15.4539749,"ECCENTRICITY":0.0003383,"INCLINATION":97.3816,"RA_OF_ASC_NODE":281.0965,"ARG_OF_PERICENTER":178.9224,"MEAN_ANOMALY":181.2033,"EPHEMERIS_TYPE":0,"NORAD_CAT_ID":60509,"ELEMENT_SET_NO":999,"REV_AT_EPOCH":10652,"BSTAR":0.00052895,"MEAN_MOTION_DOT":0.00025239,"MEAN_MOTION_DDOT":0},{"OBJECT_NAME":"FLOCK 4BE-2","OBJECT_ID":"2024-149AV","EPOCH":"2026-07-13T18:40:35.940000","CLASSIFICATION_TYPE":"U","MEAN_MOTION":15.55771864,"ECCENTRICITY":0.0005545,"INCLINATION":97.3834,"RA_OF_ASC_NODE":282.8905,"ARG_OF_PERICENTER":179.2959,"MEAN_ANOMALY":180.8304,"EPHEMERIS_TYPE":0,"NORAD_CAT_ID":60511,"ELEMENT_SET_NO":999,"REV_AT_EPOCH":10663,"BSTAR":0.00060711,"MEAN_MOTION_DOT":0.00041946,"MEAN_MOTION_DDOT":0},{"OBJECT_NAME":"FLOCK 4BE-13","OBJECT_ID":"2024-149AW","EPOCH":"2026-07-13T18:11:24.584352","CLASSIFICATION_TYPE":"U","MEAN_MOTION":15.42590436,"ECCENTRICITY":0.0004975,"INCLINATION":97.3725,"RA_OF_ASC_NODE":279.4573,"ARG_OF_PERICENTER":160.6063,"MEAN_ANOMALY":199.5375,"EPHEMERIS_TYPE":0,"NORAD_CAT_ID":60512,"ELEMENT_SET_NO":999,"REV_AT_EPOCH":10646,"BSTAR":0.00019889,"MEAN_MOTION_DOT":0.00008562,"MEAN_MOTION_DDOT":0},{"OBJECT_NAME":"FLOCK 4BE-27","OBJECT_ID":"2024-149AX","EPOCH":"2026-07-13T19:07:46.867008","CLASSIFICATION_TYPE":"U","MEAN_MOTION":15.34899924,"ECCENTRICITY":0.0003821,"INCLINATION":97.3827,"RA_OF_ASC_NODE":276.6677,"ARG_OF_PERICENTER":185.9114,"MEAN_ANOMALY":174.2085,"EPHEMERIS_TYPE":0,"NORAD_CAT_ID":60513,"ELEMENT_SET_NO":999,"REV_AT_EPOCH":10622,"BSTAR":0.00016723,"MEAN_MOTION_DOT":0.00005579,"MEAN_MOTION_DDOT":0},{"OBJECT_NAME":"FLOCK 4BE-9","OBJECT_ID":"2024-149AY","EPOCH":"2026-07-13T18:36:18.798048","CLASSIFICATION_TYPE":"U","MEAN_MOTION":15.41567162,"ECCENTRICITY":0.0003679,"INCLINATION":97.3798,"RA_OF_ASC_NODE":279.3174,"ARG_OF_PERICENTER":175.7187,"MEAN_ANOMALY":184.4092,"EPHEMERIS_TYPE":0,"NORAD_CAT_ID":60514,"ELEMENT_SET_NO":999,"REV_AT_EPOCH":10641,"BSTAR":0.00023013,"MEAN_MOTION_DOT":0.00009585,"MEAN_MOTION_DDOT":0},{"OBJECT_NAME":"FLOCK 4BE-6","OBJECT_ID":"2024-149BA","EPOCH":"2026-07-13T18:15:12.725280","CLASSIFICATION_TYPE":"U","MEAN_MOTION":15.40289629,"ECCENTRICITY":0.0004119,"INCLINATION":97.3792,"RA_OF_ASC_NODE":278.6098,"ARG_OF_PERICENTER":176.8806,"MEAN_ANOMALY":183.2466,"EPHEMERIS_TYPE":0,"NORAD_CAT_ID":60516,"ELEMENT_SET_NO":999,"REV_AT_EPOCH":10636,"BSTAR":0.00022089,"MEAN_MOTION_DOT":0.00008815,"MEAN_MOTION_DDOT":0},{"OBJECT_NAME":"FLOCK 4BE-14","OBJECT_ID":"2024-149BB","EPOCH":"2026-07-13T18:48:41.439744","CLASSIFICATION_TYPE":"U","MEAN_MOTION":15.41823605,"ECCENTRICITY":0.000523,"INCLINATION":97.3699,"RA_OF_ASC_NODE":278.7955,"ARG_OF_PERICENTER":181.0744,"MEAN_ANOMALY":179.0492,"EPHEMERIS_TYPE":0,"NORAD_CAT_ID":60517,"ELEMENT_SET_NO":999,"REV_AT_EPOCH":10642,"BSTAR":0.00023767,"MEAN_MOTION_DOT":0.0000999,"MEAN_MOTION_DDOT":0},{"OBJECT_NAME":"FLOCK 4BE-1","OBJECT_ID":"2024-149BC","EPOCH":"2026-07-13T18:31:14.121408","CLASSIFICATION_TYPE":"U","MEAN_MOTION":15.43476929,"ECCENTRICITY":0.0004973,"INCLINATION":97.3783,"RA_OF_ASC_NODE":280.1571,"ARG_OF_PERICENTER":180.6975,"MEAN_ANOMALY":179.4267,"EPHEMERIS_TYPE":0,"NORAD_CAT_ID":60518,"ELEMENT_SET_NO":999,"REV_AT_EPOCH":10647,"BSTAR":0.00024672,"MEAN_MOTION_DOT":0.00010967,"MEAN_MOTION_DDOT":0},{"OBJECT_NAME":"FLOCK 4BE-28","OBJECT_ID":"2024-149BD","EPOCH":"2026-07-13T19:25:26.073120","CLASSIFICATION_TYPE":"U","MEAN_MOTION":15.46209552,"ECCENTRICITY":0.0004838,"INCLINATION":97.3756,"RA_OF_ASC_NODE":281.0058,"ARG_OF_PERICENTER":179.1051,"MEAN_ANOMALY":181.0208,"EPHEMERIS_TYPE":0,"NORAD_CAT_ID":60519,"ELEMENT_SET_NO":999,"REV_AT_EPOCH":10655,"BSTAR":0.00050428,"MEAN_MOTION_DOT":0.00024739,"MEAN_MOTION_DDOT":0},{"OBJECT_NAME":"FLOCK 4BE-5","OBJECT_ID":"2024-149CV","EPOCH":"2026-07-13T17:19:01.448256","CLASSIFICATION_TYPE":"U","MEAN_MOTION":15.41013163,"ECCENTRICITY":0.000392,"INCLINATION":97.3851,"RA_OF_ASC_NODE":278.989,"ARG_OF_PERICENTER":175.4003,"MEAN_ANOMALY":184.728,"EPHEMERIS_TYPE":0,"NORAD_CAT_ID":60559,"ELEMENT_SET_NO":999,"REV_AT_EPOCH":10636,"BSTAR":0.00022973,"MEAN_MOTION_DOT":0.00009394,"MEAN_MOTION_DDOT":0}]}
