FLOCK 4BE-17            
1 60492U 24149AA  26194.79357811  .00009699  00000+0  24082-3 0  9995
2 60492  97.3778 278.3847 0003979 146.2457 213.9043 15.40541444106359
FLOCK 4BE-22            
1 60494U 24149AC  26194.75102016  .00009608  00000+0  22768-3 0  9997
2 60494  97.3737 278.5768 0004629 158.2402 201.9042 15.41956612106394
FLOCK 4BE-34            
1 60495U 24149AD  26194.76855130  .00009755  00000+0  23140-3 0  9999
2 60495  97.3786 279.4336 0004690 165.0317 195.1069 15.41921179106426
FLOCK 4BE-32            
1 60497U 24149AF  26194.78365872  .00011245  00000+0  25655-3 0  9992
2 60497  97.3730 279.0122 0004784 162.3605 197.7810 15.43053613106434
FLOCK 4BE-11            
1 60501U 24149AK  26194.76440194  .00011070  00000+0  24599-3 0  9999
2 60501  97.3718 279.2501 0004607 163.6732 196.4665 15.43844656106459
FLOCK 4BE-24            
1 60505U 24149AP  26194.74829825  .00012466  00000+0  27469-3 0  9992
2 60505  97.3717 279.5006 0004941 174.4420 185.6884 15.44062505106460
FLOCK 4BE-29            
1 60509U 24149AT  26194.80526381  .00025239  00000+0  52895-3 0  9997
2 60509  97.3816 281.0965 0003383 178.9224 181.2033 15.45397490106526
FLOCK 4BE-2             
1 60511U 24149AV  26194.77819375  .00041946  00000+0  60711-3 0  9993
2 60511  97.3834 282.8905 0005545 179.2959 180.8304 15.55771864106633
FLOCK 4BE-13            
1 60512U 24149AW  26194.75792343  .00008562  00000+0  19889-3 0  9994
2 60512  97.3725 279.4573 0004975 160.6063 199.5375 15.42590436106468
FLOCK 4BE-27            
1 60513U 24149AX  26194.79707022  .00005579  00000+0  16723-3 0  9998
2 60513  97.3827 276.6677 0003821 185.9114 174.2085 15.34899924106229
FLOCK 4BE-9             
1 60514U 24149AY  26194.77521757  .00009585  00000+0  23013-3 0  9997
2 60514  97.3798 279.3174 0003679 175.7187 184.4092 15.41567162106413
FLOCK 4BE-6             
1 60516U 24149BA  26194.76056395  .00008815  00000+0  22089-3 0  9996
2 60516  97.3792 278.6098 0004119 176.8806 183.2466 15.40289629106360
FLOCK 4BE-14            
1 60517U 24149BB  26194.78381296  .00009990  00000+0  23767-3 0  9999
2 60517  97.3699 278.7955 0005230 181.0744 179.0492 15.41823605106422
FLOCK 4BE-1             
1 60518U 24149BC  26194.77169122  .00010967  00000+0  24672-3 0  9993
2 60518  97.3783 280.1571 0004973 180.6975 179.4267 15.43476929106476
FLOCK 4BE-28            
1 60519U 24149BD  26194.80932955  .00024739  00000+0  50428-3 0  9990
2 60519  97.3756 281.0058 0004838 179.1051 181.0208 15.46209552106557
FLOCK 4BE-5             
1 60559U 24149CV  26194.72154454  .00009394  00000+0  22973-3 0  9999
2 60559  97.3851 278.9890 0003920 175.4003 184.7280 15.41013163106368
